ONEWEB-0651             
1 56080U 23043AL  25250.26317713  .00000751  00000+0  19619-2 0  9995
2 56080  87.9056 315.6789 0002115  94.9677 265.1695 13.15543689120424
ONEWEB-0718             
1 56081U 23043AM  25250.25842765  .00000133  00000+0  31978-3 0  9992
2 56081  87.9048 315.6613 0002002 115.1073 245.0266 13.15550059119230
ONEWEB-0561             
1 56710U 23068A   25250.24614951  .00000142  00000+0  31831-3 0  9999
2 56710  87.9281 330.8590 0002035  84.9727 275.1639 13.20770483112159
ONEWEB-0668             
1 56711U 23068B   25250.13995268  .00000019  00000+0  16524-4 0  9997
2 56711  87.9001 285.1749 0002168 107.3301 252.8067 13.16592501114532
ONEWEB-0676             
1 56712U 23068C   25250.19615509 -.00000044  00000+0 -14933-3 0  9992
2 56712  87.8993 285.1834 0002073  84.6615 275.4753 13.16594404114466
ONEWEB-0677             
1 56713U 23068D   25250.23510627  .00000058  00000+0  11071-3 0  9996
2 56713  87.9282 330.8375 0002144  96.1468 263.9910 13.20770695112457
ONEWEB-0678             
1 56714U 23068E   25250.22672915  .00000037  00000+0  62931-4 0  9994
2 56714  87.9049 315.6404 0001605  90.0035 270.1279 13.15549189112080
ONEWEB-0679             
1 56715U 23068F   25250.01330886  .00000133  00000+0  31406-3 0  9999
2 56715  87.8992 285.2120 0002428  96.2363 263.9045 13.16594271114468
ONEWEB-0680             
1 56716U 23068G   25250.21980841  .00000041  00000+0  68050-4 0  9998
2 56716  87.9215 300.4298 0002411 108.3094 251.8303 13.21824968113717
ONEWEB-0681             
1 56717U 23068H   25250.19774574  .00000018  00000+0  12719-4 0  9995
2 56717  87.9220 300.4510 0002757  77.3301 282.8142 13.21827085113707
ONEWEB-0682             
1 56718U 23068J   25250.25287260  .00000128  00000+0  30711-3 0  9997
2 56718  87.9039 315.6559 0002309 107.2696 252.8687 13.15548319112253
ONEWEB-0683             
1 56719U 23068K   25250.19821139 -.00000017  00000+0 -78402-4 0  9999
2 56719  87.9049 315.6446 0002077 104.7755 255.3606 13.15548972112210
ONEWEB-0684             
1 56720U 23068L   25250.20612396 -.00000051  00000+0 -16953-3 0  9996
2 56720  87.9034 315.6427 0000470  96.1412 263.9772 13.15549733112040
ONEWEB-0686             
1 56721U 23068M   25250.07899123  .00000133  00000+0  31304-3 0  9993
2 56721  87.8982 285.2295 0001833 103.4889 256.6446 13.16596300114469
ONEWEB-0694             
1 56722U 23068N   25250.12176830  .00000076  00000+0  16641-3 0  9996
2 56722  87.9004 285.1494 0002214 102.6063 257.5316 13.16595634114527
ONEWEB-0696             
1 56723U 23068P   25250.23940095  .00000101  00000+0  23310-3 0  9991
2 56723  87.9044 315.6895 0001638  92.3412 267.7905 13.15549286112164
