[{"OBJECT_NAME":"ONEWEB-0651","OBJECT_ID":"2023-043AL","EPOCH":"2025-09-07T06:18:58.504032","MEAN_MOTION":13.15543689,"ECCENTRICITY":0.00021159,"INCLINATION":87.9056,"RA_OF_ASC_NODE":315.6789,"ARG_OF_PERICENTER":94.9677,"MEAN_ANOMALY":265.1695,"EPHEMERIS_TYPE":0,"CLASSIFICATION_TYPE":"U","NORAD_CAT_ID":56080,"ELEMENT_SET_NO":999,"REV_AT_EPOCH":12042,"BSTAR":0.0019618712,"MEAN_MOTION_DOT":7.51e-6,"MEAN_MOTION_DDOT":0},{"OBJECT_NAME":"ONEWEB-0718","OBJECT_ID":"2023-043AM","EPOCH":"2025-09-07T06:12:08.148960","MEAN_MOTION":13.15550059,"ECCENTRICITY":0.00020024,"INCLINATION":87.9048,"RA_OF_ASC_NODE":315.6613,"ARG_OF_PERICENTER":115.1073,"MEAN_ANOMALY":245.0266,"EPHEMERIS_TYPE":0,"CLASSIFICATION_TYPE":"U","NORAD_CAT_ID":56081,"ELEMENT_SET_NO":999,"REV_AT_EPOCH":11923,"BSTAR":0.00031977551,"MEAN_MOTION_DOT":1.33e-6,"MEAN_MOTION_DDOT":0},{"OBJECT_NAME":"ONEWEB-0561","OBJECT_ID":"2023-068A","EPOCH":"2025-09-07T05:54:27.317664","MEAN_MOTION":13.20770483,"ECCENTRICITY":0.00020354,"INCLINATION":87.9281,"RA_OF_ASC_NODE":330.859,"ARG_OF_PERICENTER":84.9727,"MEAN_ANOMALY":275.1639,"EPHEMERIS_TYPE":0,"CLASSIFICATION_TYPE":"U","NORAD_CAT_ID":56710,"ELEMENT_SET_NO":999,"REV_AT_EPOCH":11215,"BSTAR":0.0003183092,"MEAN_MOTION_DOT":1.42e-6,"MEAN_MOTION_DDOT":0},{"OBJECT_NAME":"ONEWEB-0668","OBJECT_ID":"2023-068B","EPOCH":"2025-09-07T03:21:31.911552","MEAN_MOTION":13.16592501,"ECCENTRICITY":0.00021685,"INCLINATION":87.9001,"RA_OF_ASC_NODE":285.1749,"ARG_OF_PERICENTER":107.3301,"MEAN_ANOMALY":252.8067,"EPHEMERIS_TYPE":0,"CLASSIFICATION_TYPE":"U","NORAD_CAT_ID":56711,"ELEMENT_SET_NO":999,"REV_AT_EPOCH":11453,"BSTAR":1.6523707e-5,"MEAN_MOTION_DOT":1.9e-7,"MEAN_MOTION_DDOT":0},{"OBJECT_NAME":"ONEWEB-0676","OBJECT_ID":"2023-068C","EPOCH":"2025-09-07T04:42:27.799776","MEAN_MOTION":13.16594404,"ECCENTRICITY":0.00020731,"INCLINATION":87.8993,"RA_OF_ASC_NODE":285.1834,"ARG_OF_PERICENTER":84.6615,"MEAN_ANOMALY":275.4753,"EPHEMERIS_TYPE":0,"CLASSIFICATION_TYPE":"U","NORAD_CAT_ID":56712,"ELEMENT_SET_NO":999,"REV_AT_EPOCH":11446,"BSTAR":-0.00014932794,"MEAN_MOTION_DOT":-4.4e-7,"MEAN_MOTION_DDOT":0},{"OBJECT_NAME":"ONEWEB-0677","OBJECT_ID":"2023-068D","EPOCH":"2025-09-07T05:38:33.181728","MEAN_MOTION":13.20770695,"ECCENTRICITY":0.00021448,"INCLINATION":87.9282,"RA_OF_ASC_NODE":330.8375,"ARG_OF_PERICENTER":96.1468,"MEAN_ANOMALY":263.991,"EPHEMERIS_TYPE":0,"CLASSIFICATION_TYPE":"U","NORAD_CAT_ID":56713,"ELEMENT_SET_NO":999,"REV_AT_EPOCH":11245,"BSTAR":0.00011071088,"MEAN_MOTION_DOT":5.8e-7,"MEAN_MOTION_DDOT":0},{"OBJECT_NAME":"ONEWEB-0678","OBJECT_ID":"2023-068E","EPOCH":"2025-09-07T05:26:29.398560","MEAN_MOTION":13.15549189,"ECCENTRICITY":0.00016053,"INCLINATION":87.9049,"RA_OF_ASC_NODE":315.6404,"ARG_OF_PERICENTER":90.0035,"MEAN_ANOMALY":270.1279,"EPHEMERIS_TYPE":0,"CLASSIFICATION_TYPE":"U","NORAD_CAT_ID":56714,"ELEMENT_SET_NO":999,"REV_AT_EPOCH":11208,"BSTAR":6.2931339e-5,"MEAN_MOTION_DOT":3.7e-7,"MEAN_MOTION_DDOT":0},{"OBJECT_NAME":"ONEWEB-0679","OBJECT_ID":"2023-068F","EPOCH":"2025-09-07T00:19:09.885504","MEAN_MOTION":13.16594271,"ECCENTRICITY":0.00024284,"INCLINATION":87.8992,"RA_OF_ASC_NODE":285.212,"ARG_OF_PERICENTER":96.2363,"MEAN_ANOMALY":263.9045,"EPHEMERIS_TYPE":0,"CLASSIFICATION_TYPE":"U","NORAD_CAT_ID":56715,"ELEMENT_SET_NO":999,"REV_AT_EPOCH":11446,"BSTAR":0.00031405632,"MEAN_MOTION_DOT":1.33e-6,"MEAN_MOTION_DDOT":0},{"OBJECT_NAME":"ONEWEB-0680","OBJECT_ID":"2023-068G","EPOCH":"2025-09-07T05:16:31.446624","MEAN_MOTION":13.21824968,"ECCENTRICITY":0.00024114,"INCLINATION":87.9215,"RA_OF_ASC_NODE":300.4298,"ARG_OF_PERICENTER":108.3094,"MEAN_ANOMALY":251.8303,"EPHEMERIS_TYPE":0,"CLASSIFICATION_TYPE":"U","NORAD_CAT_ID":56716,"ELEMENT_SET_NO":999,"REV_AT_EPOCH":11371,"BSTAR":6.80503e-5,"MEAN_MOTION_DOT":4.1e-7,"MEAN_MOTION_DDOT":0},{"OBJECT_NAME":"ONEWEB-0681","OBJECT_ID":"2023-068H","EPOCH":"2025-09-07T04:44:45.231936","MEAN_MOTION":13.21827085,"ECCENTRICITY":0.00027572,"INCLINATION":87.922,"RA_OF_ASC_NODE":300.451,"ARG_OF_PERICENTER":77.3301,"MEAN_ANOMALY":282.8142,"EPHEMERIS_TYPE":0,"CLASSIFICATION_TYPE":"U","NORAD_CAT_ID":56717,"ELEMENT_SET_NO":999,"REV_AT_EPOCH":11370,"BSTAR":1.2718917e-5,"MEAN_MOTION_DOT":1.8e-7,"MEAN_MOTION_DDOT":0},{"OBJECT_NAME":"ONEWEB-0682","OBJECT_ID":"2023-068J","EPOCH":"2025-09-07T06:04:08.192640","MEAN_MOTION":13.15548319,"ECCENTRICITY":0.00023094,"INCLINATION":87.9039,"RA_OF_ASC_NODE":315.6559,"ARG_OF_PERICENTER":107.2696,"MEAN_ANOMALY":252.8687,"EPHEMERIS_TYPE":0,"CLASSIFICATION_TYPE":"U","NORAD_CAT_ID":56718,"ELEMENT_SET_NO":999,"REV_AT_EPOCH":11225,"BSTAR":0.00030711032,"MEAN_MOTION_DOT":1.28e-6,"MEAN_MOTION_DDOT":0},{"OBJECT_NAME":"ONEWEB-0683","OBJECT_ID":"2023-068K","EPOCH":"2025-09-07T04:45:25.464096","MEAN_MOTION":13.15548972,"ECCENTRICITY":0.00020777,"INCLINATION":87.9049,"RA_OF_ASC_NODE":315.6446,"ARG_OF_PERICENTER":104.7755,"MEAN_ANOMALY":255.3606,"EPHEMERIS_TYPE":0,"CLASSIFICATION_TYPE":"U","NORAD_CAT_ID":56719,"ELEMENT_SET_NO":999,"REV_AT_EPOCH":11221,"BSTAR":-7.8402025e-5,"MEAN_MOTION_DOT":-1.7e-7,"MEAN_MOTION_DDOT":0},{"OBJECT_NAME":"ONEWEB-0684","OBJECT_ID":"2023-068L","EPOCH":"2025-09-07T04:56:49.110144","MEAN_MOTION":13.15549733,"ECCENTRICITY":4.704e-5,"INCLINATION":87.9034,"RA_OF_ASC_NODE":315.6427,"ARG_OF_PERICENTER":96.1412,"MEAN_ANOMALY":263.9772,"EPHEMERIS_TYPE":0,"CLASSIFICATION_TYPE":"U","NORAD_CAT_ID":56720,"ELEMENT_SET_NO":999,"REV_AT_EPOCH":11204,"BSTAR":-0.00016953427,"MEAN_MOTION_DOT":-5.1e-7,"MEAN_MOTION_DDOT":0},{"OBJECT_NAME":"ONEWEB-0686","OBJECT_ID":"2023-068M","EPOCH":"2025-09-07T01:53:44.842272","MEAN_MOTION":13.165963,"ECCENTRICITY":0.00018332,"INCLINATION":87.8982,"RA_OF_ASC_NODE":285.2295,"ARG_OF_PERICENTER":103.4889,"MEAN_ANOMALY":256.6446,"EPHEMERIS_TYPE":0,"CLASSIFICATION_TYPE":"U","NORAD_CAT_ID":56721,"ELEMENT_SET_NO":999,"REV_AT_EPOCH":11446,"BSTAR":0.00031303895,"MEAN_MOTION_DOT":1.33e-6,"MEAN_MOTION_DDOT":0},{"OBJECT_NAME":"ONEWEB-0694","OBJECT_ID":"2023-068N","EPOCH":"2025-09-07T02:55:20.781120","MEAN_MOTION":13.16595634,"ECCENTRICITY":0.00022144,"INCLINATION":87.9004,"RA_OF_ASC_NODE":285.1494,"ARG_OF_PERICENTER":102.6063,"MEAN_ANOMALY":257.5316,"EPHEMERIS_TYPE":0,"CLASSIFICATION_TYPE":"U","NORAD_CAT_ID":56722,"ELEMENT_SET_NO":999,"REV_AT_EPOCH":11452,"BSTAR":0.00016640945,"MEAN_MOTION_DOT":7.6e-7,"MEAN_MOTION_DDOT":0},{"OBJECT_NAME":"ONEWEB-0696","OBJECT_ID":"2023-068P","EPOCH":"2025-09-07T05:44:44.242080","MEAN_MOTION":13.15549286,"ECCENTRICITY":0.00016381,"INCLINATION":87.9044,"RA_OF_ASC_NODE":315.6895,"ARG_OF_PERICENTER":92.3412,"MEAN_ANOMALY":267.7905,"EPHEMERIS_TYPE":0,"CLASSIFICATION_TYPE":"U","NORAD_CAT_ID":56723,"ELEMENT_SET_NO":999,"REV_AT_EPOCH":11216,"BSTAR":0.00023309739,"MEAN_MOTION_DOT":1.01e-6,"MEAN_MOTION_DDOT":0}]
